[{"OBJECT_NAME":"STARLINK-3500","OBJECT_ID":"2022-016AC","EPOCH":"2026-03-09T21:28:50.158272","MEAN_MOTION":15.08803065,"ECCENTRICITY":4.738e-5,"INCLINATION":53.2175,"RA_OF_ASC_NODE":318.2016,"ARG_OF_PERICENTER":85.0525,"MEAN_ANOMALY":275.0521,"EPHEMERIS_TYPE":0,"CLASSIFICATION_TYPE":"U","NORAD_CAT_ID":51740,"ELEMENT_SET_NO":999,"REV_AT_EPOCH":22359,"BSTAR":0.00071637304,"MEAN_MOTION_DOT":0.0001112,"MEAN_MOTION_DDOT":0},{"OBJECT_NAME":"DISKSAT D","OBJECT_ID":"2025-305C","EPOCH":"2026-03-09T13:15:42.202656","MEAN_MOTION":15.07416577,"ECCENTRICITY":0.00037124,"INCLINATION":45.0023,"RA_OF_ASC_NODE":251.6339,"ARG_OF_PERICENTER":319.2749,"MEAN_ANOMALY":40.7848,"EPHEMERIS_TYPE":0,"CLASSIFICATION_TYPE":"U","NORAD_CAT_ID":67221,"ELEMENT_SET_NO":999,"REV_AT_EPOCH":1227,"BSTAR":0.00076840651,"MEAN_MOTION_DOT":0.00011599,"MEAN_MOTION_DDOT":0}]
